{
  "type": "FeatureCollection",
  "features": [
    {
      "type": "Feature",
      "properties": {
        "norad_id": 66613,
        "name": "STARLINK-36037",
        "group": "last-30-days",
        "lat": -20.281716202270758,
        "lon": -156.57864462685194,
        "alt_km": 369.07776148925495,
        "timestamp": "2025-12-06T22:38:41.509504+00:00",
        "meta_object_name": "STARLINK-36037",
        "meta_object_id": "2025-270AB",
        "meta_epoch": "2025-12-06T14:00:01.999872",
        "meta_mean_motion": 15.68501963,
        "meta_eccentricity": 0.00015713,
        "meta_inclination": 42.999,
        "meta_ra_of_asc_node": 228.9489,
        "meta_arg_of_pericenter": 262.7487,
        "meta_mean_anomaly": 191.4598,
        "meta_ephemeris_type": 0,
        "meta_classification_type": "U",
        "meta_norad_cat_id": 66613,
        "meta_element_set_no": 999,
        "meta_rev_at_epoch": 341,
        "meta_bstar": -0.018422181,
        "meta_mean_motion_dot": -0.01902304,
        "meta_mean_motion_ddot": 0,
        "tle_line1": "1 66613U 25270AB  25340.58335648 -.01902304  00000+0 -18422-1 0  9992",
        "tle_line2": "2 66613  42.9990 228.9489 0001571 262.7487 191.4598 15.68501963  3418"
      },
      "geometry": {
        "type": "Point",
        "coordinates": [
          -156.57864462685194,
          -20.281716202270758
        ]
      }
    },
    {
      "type": "Feature",
      "properties": {
        "norad_id": 66614,
        "name": "STARLINK-36040",
        "group": "last-30-days",
        "lat": -17.856789684281736,
        "lon": -153.4497488650197,
        "alt_km": 368.83402460537764,
        "timestamp": "2025-12-06T22:38:41.509517+00:00",
        "meta_object_name": "STARLINK-36040",
        "meta_object_id": "2025-270AC",
        "meta_epoch": "2025-12-06T14:00:01.999872",
        "meta_mean_motion": 15.68504568,
        "meta_eccentricity": 0.00015975,
        "meta_inclination": 42.999,
        "meta_ra_of_asc_node": 228.9391,
        "meta_arg_of_pericenter": 266.7471,
        "meta_mean_anomaly": 191.2921,
        "meta_ephemeris_type": 0,
        "meta_classification_type": "U",
        "meta_norad_cat_id": 66614,
        "meta_element_set_no": 999,
        "meta_rev_at_epoch": 325,
        "meta_bstar": -0.01843017,
        "meta_mean_motion_dot": -0.01903238,
        "meta_mean_motion_ddot": 0,
        "tle_line1": "1 66614U 25270AC  25340.58335648 -.01903238  00000+0 -18430-1 0  9999",
        "tle_line2": "2 66614  42.9990 228.9391 0001597 266.7471 191.2921 15.68504568  3250"
      },
      "geometry": {
        "type": "Point",
        "coordinates": [
          -153.4497488650197,
          -17.856789684281736
        ]
      }
    },
    {
      "type": "Feature",
      "properties": {
        "norad_id": 66615,
        "name": "STARLINK-35988",
        "group": "last-30-days",
        "lat": -19.075926587827986,
        "lon": -155.00246007077175,
        "alt_km": 368.9884973123171,
        "timestamp": "2025-12-06T22:38:41.509527+00:00",
        "meta_object_name": "STARLINK-35988",
        "meta_object_id": "2025-270AD",
        "meta_epoch": "2025-12-06T14:00:01.999872",
        "meta_mean_motion": 15.68504373,
        "meta_eccentricity": 0.00016644,
        "meta_inclination": 42.999,
        "meta_ra_of_asc_node": 228.9443,
        "meta_arg_of_pericenter": 262.4083,
        "meta_mean_anomaly": 193.7136,
        "meta_ephemeris_type": 0,
        "meta_classification_type": "U",
        "meta_norad_cat_id": 66615,
        "meta_element_set_no": 999,
        "meta_rev_at_epoch": 325,
        "meta_bstar": -0.018439071,
        "meta_mean_motion_dot": -0.01904089,
        "meta_mean_motion_ddot": 0,
        "tle_line1": "1 66615U 25270AD  25340.58335648 -.01904089  00000+0 -18439-1 0  9994",
        "tle_line2": "2 66615  42.9990 228.9443 0001664 262.4083 193.7136 15.68504373  3255"
      },
      "geometry": {
        "type": "Point",
        "coordinates": [
          -155.00246007077175,
          -19.075926587827986
        ]
      }
    },
    {
      "type": "Feature",
      "properties": {
        "norad_id": 66616,
        "name": "STARLINK-35391",
        "group": "last-30-days",
        "lat": -16.625079646317907,
        "lon": -151.9168157081569,
        "alt_km": 368.87049629697503,
        "timestamp": "2025-12-06T22:38:41.509537+00:00",
        "meta_object_name": "STARLINK-35391",
        "meta_object_id": "2025-270AE",
        "meta_epoch": "2025-12-06T14:00:01.999872",
        "meta_mean_motion": 15.68505211,
        "meta_eccentricity": 0.00015733,
        "meta_inclination": 42.9991,
        "meta_ra_of_asc_node": 228.9349,
        "meta_arg_of_pericenter": 262.4645,
        "meta_mean_anomaly": 197.4916,
        "meta_ephemeris_type": 0,
        "meta_classification_type": "U",
        "meta_norad_cat_id": 66616,
        "meta_element_set_no": 999,
        "meta_rev_at_epoch": 352,
        "meta_bstar": -0.018446992,
        "meta_mean_motion_dot": -0.01904805,
        "meta_mean_motion_ddot": 0,
        "tle_line1": "1 66616U 25270AE  25340.58335648 -.01904805  00000+0 -18447-1 0  9990",
        "tle_line2": "2 66616  42.9991 228.9349 0001573 262.4645 197.4916 15.68505211  3524"
      },
      "geometry": {
        "type": "Point",
        "coordinates": [
          -151.9168157081569,
          -16.625079646317907
        ]
      }
    },
    {
      "type": "Feature",
      "properties": {
        "norad_id": 66617,
        "name": "STARLINK-35940",
        "group": "last-30-days",
        "lat": -35.737493174206655,
        "lon": 68.14791565891963,
        "alt_km": 351.87109701133704,
        "timestamp": "2025-12-06T22:38:41.509547+00:00",
        "meta_object_name": "STARLINK-35940",
        "meta_object_id": "2025-271A",
        "meta_epoch": "2025-12-06T14:00:01.999872",
        "meta_mean_motion": 15.74115378,
        "meta_eccentricity": 0.00015886,
        "meta_inclination": 53.158,
        "meta_ra_of_asc_node": 217.2848,
        "meta_arg_of_pericenter": 88.021,
        "meta_mean_anomaly": 256.4714,
        "meta_ephemeris_type": 0,
        "meta_classification_type": "U",
        "meta_norad_cat_id": 66617,
        "meta_element_set_no": 999,
        "meta_rev_at_epoch": 325,
        "meta_bstar": 0.00076468165,
        "meta_mean_motion_dot": 0.00112508,
        "meta_mean_motion_ddot": 0,
        "tle_line1": "1 66617U 25271A   25340.58335648  .00112508  00000+0  76468-3 0  9999",
        "tle_line2": "2 66617  53.1580 217.2848 0001588  88.0210 256.4714 15.74115378  3254"
      },
      "geometry": {
        "type": "Point",
        "coordinates": [
          68.14791565891963,
          -35.737493174206655
        ]
      }
    },
    {
      "type": "Feature",
      "properties": {
        "norad_id": 66618,
        "name": "STARLINK-35970",
        "group": "last-30-days",
        "lat": -51.96942466475322,
        "lon": 141.922868902949,
        "alt_km": 352.3076271624177,
        "timestamp": "2025-12-06T22:38:41.509557+00:00",
        "meta_object_name": "STARLINK-35970",
        "meta_object_id": "2025-271B",
        "meta_epoch": "2025-12-06T14:00:01.999872",
        "meta_mean_motion": 15.74233486,
        "meta_eccentricity": 9.506e-05,
        "meta_inclination": 53.158,
        "meta_ra_of_asc_node": 217.1724,
        "meta_arg_of_pericenter": 89.5731,
        "meta_mean_anomaly": 308.1568,
        "meta_ephemeris_type": 0,
        "meta_classification_type": "U",
        "meta_norad_cat_id": 66618,
        "meta_element_set_no": 999,
        "meta_rev_at_epoch": 325,
        "meta_bstar": -0.00026765273,
        "meta_mean_motion_dot": -0.00039718,
        "meta_mean_motion_ddot": 0,
        "tle_line1": "1 66618U 25271B   25340.58335648 -.00039718  00000+0 -26765-3 0  9998",
        "tle_line2": "2 66618  53.1580 217.1724 0000950  89.5731 308.1568 15.74233486  3256"
      },
      "geometry": {
        "type": "Point",
        "coordinates": [
          141.922868902949,
          -51.96942466475322
        ]
      }
    },
    {
      "type": "Feature",
      "properties": {
        "norad_id": 66619,
        "name": "STARLINK-35951",
        "group": "last-30-days",
        "lat": -40.66873873778401,
        "lon": 75.58663523331913,
        "alt_km": 351.53809280939095,
        "timestamp": "2025-12-06T22:38:41.509569+00:00",
        "meta_object_name": "STARLINK-35951",
        "meta_object_id": "2025-271C",
        "meta_epoch": "2025-12-06T14:00:01.999872",
        "meta_mean_motion": 15.74145198,
        "meta_eccentricity": 5.42e-05,
        "meta_inclination": 53.1578,
        "meta_ra_of_asc_node": 217.268,
        "meta_arg_of_pericenter": 105.5706,
        "meta_mean_anomaly": 246.5724,
        "meta_ephemeris_type": 0,
        "meta_classification_type": "U",
        "meta_norad_cat_id": 66619,
        "meta_element_set_no": 999,
        "meta_rev_at_epoch": 325,
        "meta_bstar": 0.00049155556,
        "meta_mean_motion_dot": 0.00071839,
        "meta_mean_motion_ddot": 0,
        "tle_line1": "1 66619U 25271C   25340.58335648  .00071839  00000+0  49156-3 0  9996",
        "tle_line2": "2 66619  53.1578 217.2680 0000542 105.5706 246.5724 15.74145198  3255"
      },
      "geometry": {
        "type": "Point",
        "coordinates": [
          75.58663523331913,
          -40.66873873778401
        ]
      }
    }
  ]
}